NORAD_CAT_ID,OBJECT_NAME,OBJECT_TYPE,EPOCH,MEAN_MOTION,ECCENTRICITY,INCLINATION,RA_OF_ASC_NODE,ARG_OF_PERICENTER,MEAN_ANOMALY,BSTAR,MEAN_MOTION_DOT,MEAN_MOTION_DDOT,TLE_LINE0,TLE_LINE1,TLE_LINE2,SEMIMAJOR_AXIS,PERIOD,APOGEE,PERIGEE,DECAYED
53613.0,STARLINK-4655,PAYLOAD,2023-02-03 18:31:22,15.08834616,0.000193,53.2168,266.6633,102.5983,257.5225,3.7041e-06,-2.29e-06,0.0,0 STARLINK-4655,1 53613U 22104AB  23034.77178691 -.00000229  00000-0  37041-5 0  9999,2 53613  53.2168 266.6633 0001930 102.5983 257.5225 15.08834616 24486,6917.897,95.438,541.097,538.427,0.0
53613.0,STARLINK-4655,PAYLOAD,2023-02-04 21:32:55,15.08842259,0.0001266,53.2164,261.6131,95.6834,264.4303,3.7181e-05,3.04e-06,0.0,0 STARLINK-4655,1 53613U 22104AB  23035.89786033  .00000304  00000-0  37181-4 0  9995,2 53613  53.2164 261.6131 0001266  95.6834 264.4303 15.08842259 24654,6917.873,95.437,540.614,538.863,0.0
53613.0,STARLINK-4655,PAYLOAD,2023-02-05 13:26:47,15.08835968,0.0001209,53.216,258.6406,87.0713,273.0418,-8.2706e-06,-4.19e-06,0.0,0 STARLINK-4655,1 53613U 22104AB  23036.56026674 -.00000419  00000-0 -82706-5 0  9991,2 53613  53.2160 258.6406 0001209  87.0713 273.0418 15.08835968 24752,6917.893,95.438,540.594,538.921,0.0
53613.0,STARLINK-4655,PAYLOAD,2023-02-05 19:48:19,15.08837083,0.0001167,53.2163,257.4507,93.7735,266.339,6.0929e-06,-1.91e-06,0.0,0 STARLINK-4655,1 53613U 22104AB  23036.82522540 -.00000191  00000-0  60929-5 0  9992,2 53613  53.2163 257.4507 0001167  93.7735 266.3390 15.08837083 25367,6917.889,95.438,540.562,538.947,0.0
53613.0,STARLINK-4655,PAYLOAD,2023-02-06 21:14:29,15.08844917,0.0001121,53.2163,252.6931,92.4078,267.7043,6.0283e-05,6.72e-06,0.0,0 STARLINK-4655,1 53613U 22104AB  23037.88505960  .00000672  00000-0  60283-4 0  9991,2 53613  53.2163 252.6931 0001121  92.4078 267.7043 15.08844917 24959,6917.865,95.437,540.506,538.955,0.0
53613.0,STARLINK-4655,PAYLOAD,2023-02-07 19:29:54,15.08832384,0.0001084,53.2162,248.5302,89.1607,270.9509,8.3909e-06,-1.54e-06,0.0,0 STARLINK-4655,1 53613U 22104AB  23038.81243104 -.00000154  00000-0  83909-5 0  9991,2 53613  53.2162 248.5302 0001084  89.1607 270.9509 15.08832384 25097,6917.904,95.438,540.519,539.019,0.0
53613.0,STARLINK-4655,PAYLOAD,2023-02-08 20:56:04,15.08841368,0.0001049,53.2163,243.7721,85.7367,274.3745,6.5577e-06,-1.83e-06,0.0,0 STARLINK-4655,1 53613U 22104AB  23039.87226902 -.00000183  00000-0  65577-5 0  9998,2 53613  53.2163 243.7721 0001049  85.7367 274.3745 15.08841368 25829,6917.876,95.437,540.467,539.016,0.0
53613.0,STARLINK-4655,PAYLOAD,2023-02-09 00:06:50,15.08843703,0.0001075,53.2165,243.1769,82.5805,277.5309,2.4652e-05,1.05e-06,0.0,0 STARLINK-4655,1 53613U 22104AB  23040.00474696  .00000105  00000-0  24652-4 0  9991,2 53613  53.2165 243.1769 0001075  82.5805 277.5309 15.08843703 25273,6917.869,95.437,540.478,538.99,0.0
53613.0,STARLINK-4655,PAYLOAD,2023-02-09 19:11:27,15.08840363,0.0001122,53.2172,239.6071,76.9168,283.195,0.00010222,1.339e-05,0.0,0 STARLINK-4655,1 53613U 22104AB  23040.79962839  .00001339  00000-0  10222-3 0  9995,2 53613  53.2172 239.6071 0001122  76.9168 283.1950 15.08840363 25969,6917.879,95.438,540.52,538.968,0.0
53613.0,STARLINK-4655,PAYLOAD,2023-02-09 20:46:50,15.08842866,0.0001154,53.2173,239.3095,75.1772,284.9348,0.0001211,1.64e-05,0.0,0 STARLINK-4655,1 53613U 22104AB  23040.86586646  .00001640  00000-0  12110-3 0  9994,2 53613  53.2173 239.3095 0001154  75.1772 284.9348 15.08842866 25971,6917.872,95.437,540.535,538.938,0.0
53613.0,STARLINK-4655,PAYLOAD,2023-02-10 06:19:10,15.08838232,0.0001097,53.2172,237.5258,80.9084,279.2033,8.6613e-05,1.091e-05,0.0,0 STARLINK-4655,1 53613U 22104AB  23041.26331056  .00001091  00000-0  86613-4 0  9992,2 53613  53.2172 237.5258 0001097  80.9084 279.2033 15.08838232 25461,6917.886,95.438,540.51,538.992,0.0
53613.0,STARLINK-4655,PAYLOAD,2023-02-11 06:09:57,15.08840723,0.0001127,53.2171,233.0652,82.1657,277.9463,3.7262e-05,3.05e-06,0.0,0 STARLINK-4655,1 53613U 22104AB  23042.25691131  .00000305  00000-0  37262-4 0  9998,2 53613  53.2171 233.0652 0001127  82.1657 277.9463 15.08840723 26183,6917.878,95.438,540.523,538.964,0.0
53613.0,STARLINK-4655,PAYLOAD,2023-02-11 18:53:02,15.08843124,0.0001166,53.2169,230.687,78.5155,281.5968,1.383e-05,-6.8e-07,0.0,0 STARLINK-4655,1 53613U 22104AB  23042.78683058 -.00000068  00000-0  13830-4 0  9997,2 53613  53.2169 230.6870 0001166  78.5155 281.5968 15.08843124 25694,6917.871,95.437,540.542,538.929,0.0
53613.0,STARLINK-4655,PAYLOAD,2023-02-12 07:36:07,15.08839353,0.0001297,53.2157,228.3085,78.1208,281.9929,4.1467e-05,3.72e-06,0.0,0 STARLINK-4655,1 53613U 22104AB  23043.31675168  .00000372  00000-0  41467-4 0  9994,2 53613  53.2157 228.3085 0001297  78.1208 281.9929 15.08839353 26346,6917.882,95.438,540.645,538.85,0.0
53613.0,STARLINK-4655,PAYLOAD,2023-02-12 18:43:49,15.08838249,0.0001223,53.2166,226.2278,76.52,283.5929,5.4951e-05,5.87e-06,0.0,0 STARLINK-4655,1 53613U 22104AB  23043.78043325  .00000587  00000-0  54951-4 0  9999,2 53613  53.2166 226.2278 0001223  76.5200 283.5929 15.08838249 25845,6917.886,95.438,540.597,538.905,0.0
53613.0,STARLINK-4655,PAYLOAD,2023-02-13 12:13:04,15.08837246,0.0001141,53.2166,222.9572,70.2234,289.8881,4.0086e-05,3.5e-06,0.0,0 STARLINK-4655,1 53613U 22104AB  23044.50907491  .00000350  00000-0  40086-4 0  9995,2 53613  53.2166 222.9572 0001141  70.2234 289.8881 15.08837246 26520,6917.889,95.438,540.543,538.964,0.0
53613.0,STARLINK-4655,PAYLOAD,2023-02-14 12:03:51,15.08834847,0.0001286,53.216,218.4956,78.5928,281.5209,6.0607e-05,6.77e-06,0.0,0 STARLINK-4655,1 53613U 22104AB  23045.50267692  .00000677  00000-0  60607-4 0  9991,2 53613  53.2160 218.4956 0001286  78.5928 281.5209 15.08834847 26102,6917.896,95.438,540.651,538.871,0.0
53613.0,STARLINK-4655,PAYLOAD,2023-02-14 18:25:23,15.08842734,0.0001201,53.2162,217.3071,80.9501,279.1627,0.00011487,1.541e-05,0.0,0 STARLINK-4655,1 53613U 22104AB  23045.76762998  .00001541  00000-0  11487-3 0  9990,2 53613  53.2162 217.3071 0001201  80.9501 279.1627 15.08842734 26146,6917.872,95.437,540.568,538.906,0.0
53613.0,STARLINK-4655,PAYLOAD,2023-02-15 03:57:42,15.0883885,0.0001193,53.2161,215.5233,81.0633,279.0494,5.6656e-05,6.14e-06,0.0,0 STARLINK-4655,1 53613U 22104AB  23046.16507363  .00000614  00000-0  56656-4 0  9996,2 53613  53.2161 215.5233 0001193  81.0633 279.0494 15.08838850 26205,6917.884,95.438,540.574,538.924,0.0
53613.0,STARLINK-4655,PAYLOAD,2023-02-15 18:16:10,15.08838773,7.89e-05,53.2164,212.8469,98.2983,261.8098,2.7523e-05,1.5e-06,0.0,0 STARLINK-4655,1 53613U 22104AB  23046.76123359  .00000150  00000-0  27523-4 0  9997,2 53613  53.2164 212.8469 0000789  98.2983 261.8098 15.08838773 26862,6917.884,95.438,540.295,539.203,0.0
53613.0,STARLINK-4655,PAYLOAD,2023-02-16 13:20:47,15.08843411,8.4e-05,53.2166,209.2784,102.6584,257.4502,6.292e-05,7.14e-06,0.0,0 STARLINK-4655,1 53613U 22104AB  23047.55610922  .00000714  00000-0  62920-4 0  9998,2 53613  53.2166 209.2784 0000840 102.6584 257.4502 15.08843411 26416,6917.87,95.437,540.316,539.154,0.0
53613.0,STARLINK-4655,PAYLOAD,2023-02-17 11:36:11,15.08836379,5.12e-05,53.2174,205.1153,99.3881,260.7169,6.401e-05,7.31e-06,0.0,0 STARLINK-4655,1 53613U 22104AB  23048.48347198  .00000731  00000-0  64010-4 0  9994,2 53613  53.2174 205.1153 0000512  99.3881 260.7169 15.08836379 26554,6917.891,95.438,540.111,539.402,0.0
53613.0,STARLINK-4655,PAYLOAD,2023-02-17 17:57:44,15.08843456,8.53e-05,53.2183,203.9255,82.2163,277.8926,6.8609e-05,8.04e-06,0.0,0 STARLINK-4655,1 53613U 22104AB  23048.74842857  .00000804  00000-0  68609-4 0  9994,2 53613  53.2183 203.9255 0000853  82.2163 277.8926 15.08843456 27167,6917.87,95.437,540.325,539.145,0.0
53613.0,STARLINK-4655,PAYLOAD,2023-02-18 09:51:36,15.08825175,8.56e-05,53.2181,200.9527,86.6811,273.4279,-6.0266e-05,-1.246e-05,0.0,0 STARLINK-4655,1 53613U 22104AB  23049.41084481 -.00001246  00000-0 -60266-4 0  9994,2 53613  53.2181 200.9527 0000856  86.6811 273.4279 15.08825175 26693,6917.926,95.438,540.383,539.199,0.0
53613.0,STARLINK-4655,PAYLOAD,2023-02-18 13:02:23,15.08827853,0.0001204,53.2166,200.3563,97.8793,262.2336,-4.8236e-05,-1.055e-05,0.0,0 STARLINK-4655,1 53613U 22104AB  23049.54332397 -.00001055  00000-0 -48236-4 0  9991,2 53613  53.2166 200.3563 0001204  97.8793 262.2336 15.08827853 27282,6917.918,95.438,540.615,538.95,0.0
53613.0,STARLINK-4655,PAYLOAD,2023-02-18 16:13:09,15.08829498,9.69e-05,53.2168,199.7622,100.7709,259.3392,-3.4056e-05,-8.3e-06,0.0,0 STARLINK-4655,1 53613U 22104AB  23049.67580260 -.00000830  00000-0 -34056-4 0  9994,2 53613  53.2168 199.7622 0000969 100.7709 259.3392 15.08829498 26734,6917.912,95.438,540.448,539.107,0.0
53613.0,STARLINK-4655,PAYLOAD,2023-02-19 14:28:32,15.0884136,0.0001096,53.2169,195.5988,94.829,265.2828,4.0387e-05,3.55e-06,0.0,0 STARLINK-4655,1 53613U 22104AB  23050.60315647  .00000355  00000-0  40387-4 0  9998,2 53613  53.2169 195.5988 0001096  94.8290 265.2828 15.08841360 26871,6917.876,95.437,540.499,538.983,0.0
53613.0,STARLINK-4655,PAYLOAD,2023-02-20 14:19:19,15.08834248,9.65e-05,53.2172,191.1386,90.6353,269.4749,0.00015658,2.205e-05,0.0,0 STARLINK-4655,1 53613U 22104AB  23051.59675884  .00002205  00000-0  15658-3 0  9997,2 53613  53.2172 191.1386 0000965  90.6353 269.4749 15.08834248 27592,6917.898,95.438,540.431,539.095,0.0
53613.0,STARLINK-4655,PAYLOAD,2023-02-20 15:54:42,15.08838113,9.13e-05,53.2173,190.8411,91.5916,268.5181,0.00019171,2.764e-05,0.0,0 STARLINK-4655,1 53613U 22104AB  23051.66299539  .00002764  00000-0  19171-3 0  9998,2 53613  53.2173 190.8411 0000913  91.5916 268.5181 15.08838113 27030,6917.886,95.438,540.383,539.12,0.0
53613.0,STARLINK-4655,PAYLOAD,2023-02-21 12:34:43,15.08845385,9.26e-05,53.2166,186.9754,90.8704,269.2394,3.0188e-05,1.93e-06,0.0,0 STARLINK-4655,1 53613U 22104AB  23052.52411565  .00000193  00000-0  30188-4 0  9995,2 53613  53.2166 186.9754 0000926  90.8704 269.2394 15.08845385 27739,6917.864,95.437,540.37,539.088,0.0
